[{"OBJECT_NAME":"AEROCUBE 7","OBJECT_ID":"2015-058C","EPOCH":"2026-03-09T17:13:01.759008","MEAN_MOTION":14.94898912,"ECCENTRICITY":0.01206065,"INCLINATION":64.7631,"RA_OF_ASC_NODE":196.1788,"ARG_OF_PERICENTER":101.5653,"MEAN_ANOMALY":259.9029,"EPHEMERIS_TYPE":0,"CLASSIFICATION_TYPE":"U","NORAD_CAT_ID":40966,"ELEMENT_SET_NO":999,"REV_AT_EPOCH":35108,"BSTAR":0.00047976725,"MEAN_MOTION_DOT":5.894e-5,"MEAN_MOTION_DDOT":0},{"OBJECT_NAME":"STARLINK-6277","OBJECT_ID":"2023-061AB","EPOCH":"2026-03-09T22:00:01.999584","MEAN_MOTION":15.06487571,"ECCENTRICITY":0.00020582,"INCLINATION":42.9995,"RA_OF_ASC_NODE":183.5468,"ARG_OF_PERICENTER":278.8022,"MEAN_ANOMALY":136.7338,"EPHEMERIS_TYPE":0,"CLASSIFICATION_TYPE":"U","NORAD_CAT_ID":56399,"ELEMENT_SET_NO":999,"REV_AT_EPOCH":573,"BSTAR":0.0017676761,"MEAN_MOTION_DOT":0.00026434,"MEAN_MOTION_DDOT":0}]
